H1 CPF  1  DLR 2022 04 23 10  6132 technosat            
H2  1704205 6203    42829 2022 04 23 00 00 00 2022 04 30 00 00 00    60 1 1  0 0 0
H9
10 0 59697      0.000000  0       2191387.415      -2271525.254       6201859.931
10 0 59697     60.000000  0       2351195.815      -2645860.841       5991215.828
10 0 59697    120.000000  0       2497844.622      -3010364.962       5755091.403
10 0 59697    180.000000  0       2630803.647      -3363375.875       5494480.936
10 0 59697    240.000000  0       2749614.432      -3703274.921       5210483.858
10 0 59697    300.000000  0       2853891.918      -4028494.151       4904300.346
10 0 59697    360.000000  0       2943325.786      -4337523.862       4577226.450
10 0 59697    420.000000  0       3017681.421      -4628919.933       4230648.656
10 0 59697    480.000000  0       3076800.437      -4901310.819       3866038.022
10 0 59697    540.000000  0       3120600.848      -5153404.300       3484944.005
10 0 59697    600.000000  0       3149076.873      -5383993.971       3088987.846
10 0 59697    660.000000  0       3162298.317      -5591965.325       2679855.526
10 0 59697    720.000000  0       3160409.528      -5776301.394       2259290.423
10 0 59697    780.000000  0       3143627.966      -5936087.962       1829085.682
10 0 59697    840.000000  0       3112242.405      -6070518.253       1391076.334
10 0 59697    900.000000  0       3066610.860      -6178897.144        947131.242
10 0 59697    960.000000  0       3007158.090      -6260644.851        499144.828
10 0 59697   1020.000000  0       2934372.779      -6315300.145         49028.709
10 0 59697   1080.000000  0       2848804.354      -6342522.972       -401296.936
10 0 59697   1140.000000  0       2751059.467      -6342096.292       -849912.012
10 0 59697   1200.000000  0       2641798.203      -6313927.293      -1294905.022
10 0 59697   1260.000000  0       2521730.039      -6258048.078      -1734381.470
10 0 59697   1320.000000  0       2391609.591      -6174615.760      -2166472.216
10 0 59697   1380.000000  0       2252232.239      -6063911.942      -2589341.738
10 0 59697   1440.000000  0       2104429.358      -5926341.528      -3001196.281
10 0 59697   1500.000000  0       1949063.415      -5762430.793      -3400291.542
10 0 59697   1560.000000  0       1787023.145      -5572824.968      -3784940.077
10 0 59697   1620.000000  0       1619218.630      -5358285.267      -4153518.459
10 0 59697   1680.000000  0       1446576.307      -5119685.374      -4504474.040
10 0 59697   1740.000000  0       1270033.965      -4858007.469      -4836331.346
10 0 59697   1800.000000  0       1090535.771      -4574337.786      -5147698.085
10 0 59697   1860.000000  0        909027.323      -4269861.715      -5437270.766
10 0 59697   1920.000000  0        726450.778      -3945858.463      -5703839.882
10 0 59697   1980.000000  0        543740.065      -3603695.338      -5946294.612
10 0 59697   2040.000000  0        361816.225      -3244821.699      -6163627.078
10 0 59697   2100.000000  0        181582.898      -2870762.591      -6354936.152
10 0 59697   2160.000000  0          3921.953      -2483112.094      -6519430.811
10 0 59697   2220.000000  0       -170310.688      -2083526.412      -6656433.019
10 0 59697   2280.000000  0       -340289.033      -1673716.759      -6765380.148
10 0 59697   2340.000000  0       -505220.785      -1255442.039      -6845826.992
10 0 59697   2400.000000  0       -664350.880       -830501.323      -6897447.298
10 0 59697   2460.000000  0       -816964.817       -400726.184      -6920034.815
10 0 59697   2520.000000  0       -962391.763         32027.048      -6913503.861
10 0 59697   2580.000000  0      -1100007.394        465885.073      -6877889.479
10 0 59697   2640.000000  0      -1229236.485        898965.526      -6813347.234
10 0 59697   2700.000000  0      -1349555.218       1329385.004      -6720152.478
10 0 59697   2760.000000  0      -1460493.216       1755266.994      -6598699.139
10 0 59697   2820.000000  0      -1561635.302       2174749.787      -6449498.226
10 0 59697   2880.000000  0      -1652623.008       2585994.479      -6273175.915
10 0 59697   2940.000000  0      -1733155.831       2987192.953      -6070471.101
10 0 59697   3000.000000  0      -1802992.133       3376575.690      -5842232.469
10 0 59697   3060.000000  0      -1861949.757       3752419.468      -5589415.250
10 0 59697   3120.000000  0      -1909906.391       4113054.992      -5313077.541
10 0 59697   3180.000000  0      -1946799.632       4456874.354      -5014376.164
10 0 59697   3240.000000  0      -1972626.753       4782338.289      -4694562.081
10 0 59697   3300.000000  0      -1987444.156       5087983.168      -4354975.393
10 0 59697   3360.000000  0      -1991366.522       5372427.694      -3997039.962
10 0 59697   3420.000000  0      -1984565.667       5634379.281      -3622257.666
10 0 59697   3480.000000  0      -1967269.086       5872640.102      -3232202.335
10 0 59697   3540.000000  0      -1939758.238       6086112.788      -2828513.352
10 0 59697   3600.000000  0      -1902366.564       6273805.754      -2412888.913
10 0 59697   3660.000000  0      -1855477.252       6434838.082      -1987078.937
10 0 59697   3720.000000  0      -1799520.702       6568443.855      -1552877.706
10 0 59697   3780.000000  0      -1734971.755       6673975.965      -1112116.370
10 0 59697   3840.000000  0      -1662346.736       6750909.510       -666655.257
10 0 59697   3900.000000  0      -1582200.238       6798844.622       -218375.965
10 0 59697   3960.000000  0      -1495121.695       6817508.792        230826.690
10 0 59697   4020.000000  0      -1401731.821       6806758.549        679052.942
10 0 59697   4080.000000  0      -1302678.865       6766580.381       1124406.368
10 0 59697   4140.000000  0      -1198634.729       6697091.026       1565002.109
10 0 59697   4200.000000  0      -1090290.965       6598537.131       1998974.986
10 0 59697   4260.000000  0       -978354.694       6471294.347       2424487.490
10 0 59697   4320.000000  0       -863544.499       6315865.852       2839737.644
10 0 59697   4380.000000  0       -746586.267       6132880.290       3242966.747
10 0 59697   4440.000000  0       -628209.005       5923089.080       3632466.849
10 0 59697   4500.000000  0       -509140.738       5687363.316       4006588.001
10 0 59697   4560.000000  0       -390104.433       5426690.053       4363745.495
10 0 59697   4620.000000  0       -271813.893       5142167.799       4702426.703
10 0 59697   4680.000000  0       -154969.718       4835001.473       5021197.317
10 0 59697   4740.000000  0        -40255.440       4506497.190       5318707.121
10 0 59697   4800.000000  0         71666.191       4158056.723       5593695.643
10 0 59697   4860.000000  0        180156.783       3791171.400       5844997.546
10 0 59697   4920.000000  0        284605.742       3407415.481       6071547.480
10 0 59697   4980.000000  0        384433.501       3008439.263       6272384.401
10 0 59697   5040.000000  0        479094.569       2595961.954       6446655.507
10 0 59697   5100.000000  0        568080.374       2171764.226       6593619.784
10 0 59697   5160.000000  0        650921.889       1737680.471       6712651.083
10 0 59697   5220.000000  0        727192.014       1295590.818       6803240.683
10 0 59697   5280.000000  0        796507.714        847413.021       6864999.370
10 0 59697   5340.000000  0        858531.915        395094.236       6897659.071
10 0 59697   5400.000000  0        912975.147        -59397.353       6901074.103
10 0 59697   5460.000000  0        959596.897       -514081.091       6875221.972
10 0 59697   5520.000000  0        998206.707       -966972.536       6820203.573
10 0 59697   5580.000000  0       1028665.008      -1416092.085       6736242.905
10 0 59697   5640.000000  0       1050883.630      -1859473.643       6623686.371
10 0 59697   5700.000000  0       1064826.074      -2295173.304       6483001.540
10 0 59697   5760.000000  0       1070507.497      -2721277.995       6314775.445
10 0 59697   5820.000000  0       1067994.338      -3135914.069       6119712.282
10 0 59697   5880.000000  0       1057403.671      -3537255.632       5898630.599
10 0 59697   5940.000000  0       1038902.363      -3923532.709       5652460.103
10 0 59697   6000.000000  0       1012705.924      -4293039.249       5382237.968
10 0 59697   6060.000000  0        979077.073      -4644140.886       5089104.725
10 0 59697   6120.000000  0        938324.050      -4975282.487       4774299.696
10 0 59697   6180.000000  0        890798.662      -5284995.463       4439155.940
10 0 59697   6240.000000  0        836894.047      -5571904.706       4085094.675
10 0 59697   6300.000000  0        777042.205      -5834735.092       3713619.285
10 0 59697   6360.000000  0        711711.307      -6072317.552       3326308.919
10 0 59697   6420.000000  0        641402.791      -6283594.658       2924811.708
10 0 59697   6480.000000  0        566648.187      -6467625.697       2510837.640
10 0 59697   6540.000000  0        488005.784      -6623591.178       2086151.111
10 0 59697   6600.000000  0        406057.191      -6750796.780       1652563.244
10 0 59697   6660.000000  0        321403.738      -6848676.796       1211923.962
10 0 59697   6720.000000  0        234662.696      -6916796.983        766113.733
10 0 59697   6780.000000  0        146463.394      -6954856.616        317035.109
10 0 59697   6840.000000  0         57443.295      -6962689.853       -133395.809
10 0 59697   6900.000000  0        -31755.944      -6940266.390       -583257.931
10 0 59697   6960.000000  0       -120492.454      -6887691.455      -1030633.741
10 0 59697   7020.000000  0       -208128.111      -6805205.106      -1473617.787
10 0 59697   7080.000000  0       -294032.458      -6693180.915      -1910325.056
10 0 59697   7140.000000  0       -377586.570      -6552124.030      -2338899.267
99
